SKYSAT-C4               
1 41771U 16058B   26204.50513755  .00017484  00000+0  31709-3 0  9991
2 41771  96.9177 224.7807 0003569 107.7824 252.3818 15.49650272551093
SKYSAT-C5               
1 41772U 16058C   26204.10558117  .00007252  00000+0  22409-3 0  9998
2 41772  97.0456 243.1260 0003402 142.5858 217.5623 15.33797689549253
SKYSAT-C2               
1 41773U 16058D   26204.32921844  .00012159  00000+0  27930-3 0  9990
2 41773  97.0165 225.0801 0000661 273.3925  86.7248 15.42821230550625
SKYSAT-C3               
1 41774U 16058E   26204.54179846  .00023979  00000+0  37171-3 0  9992
2 41774  96.9002 234.0233 0002886 123.0560 237.0972 15.54002189551757
ALSAT-1B                
1 41785U 16059C   26204.87212351  .00000638  00000+0  10836-3 0  9996
2 41785  97.7767 212.0539 0010787 105.5125 254.7275 14.72300219525973
PATHFINDER 1            
1 41787U 16059E   26204.81517476  .00000564  00000+0  10660-3 0  9991
2 41787  97.8182 202.4411 0029969  89.5624 270.9015 14.67701166525080
SCATSAT 1               
1 41790U 16059H   26204.59750693  .00001181  00000+0  16099-3 0  9998
2 41790  98.1171 268.7361 0055700 129.9347 230.6778 14.79603582106976
GOKTURK 1A              
1 41875U 16073A   26204.84156703  .00000428  00000+0  93100-4 0  9990
2 41875  98.1200  98.9333 0001430  84.0563 276.0802 14.62797983514186
RESOURCESAT-2A          
1 41877U 16074A   26204.81042074  .00000095  00000+0  63346-4 0  9994
2 41877  98.7512 278.0125 0001870   7.5055 352.6150 14.21610569499508
CARTOSAT-2D             
1 41948U 17008A   26204.44911100  .00003968  00000+0  19096-3 0  9999
2 41948  97.4087 263.0730 0006506 117.0345 243.1554 15.19329256523087
SENTINEL-2B             
1 42063U 17013A   26204.85087481 -.00000106  00000+0 -23985-4 0  9991
2 42063  98.5677 279.1051 0001239  92.2066 267.9259 14.30816223489881
CARTOSAT-2E             
1 42767U 17036C   26204.59876079  .00004931  00000+0  23677-3 0  9992
2 42767  97.4256 263.7967 0004182 159.7710 200.3691 15.19302949503671
FORMOSAT-5              
1 42920U 17049A   26204.81019921  .00000111  00000+0  39269-4 0  9998
2 42920  98.2240 279.3040 0010817 336.5401  23.5299 14.50894505471988
SENTINEL-5P             
1 42969U 17064A   26204.36112713  .00000031  00000+0  35683-4 0  9998
2 42969  98.7929 146.2368 0001206  92.3775 267.7539 14.19524290454692
SKYSAT-C11              
1 42987U 17068A   26204.39086712  .00030498  00000+0  38262-3 0  9999
2 42987  97.4380 354.8568 0001508 147.1025 213.0325 15.59689712488881
SKYSAT-C10              
1 42988U 17068B   26204.79926669  .00009483  00000+0  27945-3 0  9994
2 42988  97.4540 342.0280 0001562 110.3852 249.7559 15.35247695487978
SKYSAT-C9               
1 42989U 17068C   26204.31978231  .00012642  00000+0  29466-3 0  9996
2 42989  97.4460 342.8295 0007944  17.0072 343.1440 15.42362279488323
SKYSAT-C8               
1 42990U 17068D   26204.32382802  .00010428  00000+0  28469-3 0  9994
2 42990  97.4557 341.4865 0001312 107.4214 252.7174 15.37611067487868
SKYSAT-C7               
1 42991U 17068E   26204.31857238  .00010274  00000+0  28091-3 0  9994
2 42991  97.4568 342.4736 0004958 351.7605   8.3557 15.37559306487920
SKYSAT-C6               
1 42992U 17068F   26204.80231610  .00008652  00000+0  26301-3 0  9998
2 42992  97.4606 342.7790 0004765  67.6027 292.5720 15.34282201487938
CARTOSAT-2F             
1 43111U 18004A   26204.89519852  .00004174  00000+0  20146-3 0  9995
2 43111  97.4771 264.1663 0002853 119.6299 240.5220 15.19223248472904
GAOFEN-1 02             
1 43259U 18031A   26204.82688338  .00000716  00000+0  11027-3 0  9993
2 43259  98.0508 267.2476 0001601 231.0158 129.0909 14.76480812448105
GAOFEN-1 03             
1 43260U 18031B   26204.87280463  .00000642  00000+0  99666-4 0  9991
2 43260  98.0501 267.1475 0001718 346.7975  13.3190 14.76471568448103
GAOFEN-1 04             
1 43262U 18031D   26204.84861228  .00000167  00000+0  31433-4 0  9994
2 43262  98.0509 267.3185 0000786  58.5313 301.5973 14.76444748448090
SENTINEL-3B             
1 43437U 18039A   26204.44684152  .00000073  00000+0  48155-4 0  9996
2 43437  98.6229 271.4552 0001317 117.9651 242.1662 14.26738084429299
GAOFEN-5 01             
1 43461U 18043A   26204.84867860  .00000276  00000+0  66747-4 0  9993
2 43461  98.4599 177.2109 0001556  12.6635 347.4604 14.60627608437047
GAOFEN-6                
1 43484U 18048A   26204.87151633  .00000656  00000+0  10185-3 0  9996
2 43484  98.0952 267.5933 0011882  57.3651 302.8703 14.76390947438806
GAOFEN-11 01            
1 43585U 18063A   26204.83475689  .00012807  00000+0  18365-3 0  9990
2 43585  97.1271 271.6305 0004186 168.3194 191.8159 15.56270542446048
ICESAT-2                
1 43613U 18070A   26204.82370264  .00009311  00000+0  33786-3 0  9992
2 43613  92.0086 300.8799 0004497  38.6814 321.4757 15.28291123438057
HYSIS                   
1 43719U 18096A   26204.82112716  .00001320  00000+0  18733-3 0  9990
2 43719  97.9822 271.2781 0001665  72.9552 287.1841 14.78624783412838
KAZSTSAT                
1 43783U 18099AB  26204.52214128  .00000265  00000+0  25859-4 0  9996
2 43783  97.4301 234.8148 0007209 305.3153  54.7397 14.99961770416750
